QIANFAN-41              
1 62242U 24232F   25207.89047144  .00000049  00000+0  58179-4 0  9998
2 62242  88.9931  55.2388 0012359 227.7478 132.2626 13.50959096 80506
QIANFAN-42              
1 62243U 24232G   25207.88779236  .00000158  00000+0  61987-4 0  9994
2 62243  88.9929  53.2456 0015120 169.7981 190.3521 14.24332002 81606
QIANFAN-43              
1 62244U 24232H   25207.88627190  .00000041  00000+0  45826-4 0  9991
2 62244  88.9936  55.2984 0013766 234.2102 125.7770 13.50951891 49119
QIANFAN-44              
1 62245U 24232J   25207.87401019  .00000038  00000+0  41176-4 0  9991
2 62245  88.9934  55.1125 0012048 230.2792 129.7298 13.50947487 80588
QIANFAN-45              
1 62246U 24232K   25207.91515740  .00000057  00000+0  70096-4 0  9998
2 62246  88.9938  55.2501 0012702 230.0770 129.9265 13.50957809 80511
QIANFAN-46              
1 62247U 24232L   25207.93985828  .00000048  00000+0  56609-4 0  9993
2 62247  88.9934  55.3223 0012673 236.2156 123.7789 13.50959843 80471
QIANFAN-47              
1 62248U 24232M   25207.94389686  .00000051  00000+0  61263-4 0  9991
2 62248  88.9930  55.2604 0013113 235.3130 124.6786 13.50959478 80507
QIANFAN-48              
1 62249U 24232N   25207.90691604  .00000069  00000+0  88970-4 0  9997
2 62249  88.9934  55.2605 0015328 238.9863 120.9783 13.50953182 80507
